GALAXY 31 (G-31)        
1 54243U 22153A   26095.16850451  .00000014  00000+0  00000+0 0  9996
2 54243   0.0100 216.1865 0001539 171.3814 105.5612  1.00272270  6404
GALAXY 32 (G-32)        
1 54244U 22153B   26095.17475478 -.00000173  00000+0  00000+0 0  9997
2 54244   0.0179 252.8830 0003173 120.3077 152.1962  1.00274477 12416
GALAXY 35 (G-35)        
1 54741U 22170A   26095.22740611 -.00000161  00000+0  00000+0 0  9995
2 54741   0.0074 212.3098 0002139 172.6669 157.3154  1.00272427 12162
GALAXY 36 (G-36)        
1 54742U 22170B   26095.15694582 -.00000184  00000+0  00000+0 0  9998
2 54742   0.0239 138.1783 0002647 278.1506 104.6237  1.00271828 12046
GALAXY 37 (G-37)        
1 57493U 23112A   26095.22064609  .00000049  00000+0  00000+0 0  9999
2 57493   0.0241 101.4352 0002096 277.5095 127.0005  1.00271909  9817
