[{"OBJECT_NAME":"GALAXY 31 (G-31)","OBJECT_ID":"2022-153A","EPOCH":"2026-04-05T04:02:38.789664","MEAN_MOTION":1.0027227,"ECCENTRICITY":0.00015393,"INCLINATION":0.01,"RA_OF_ASC_NODE":216.1865,"ARG_OF_PERICENTER":171.3814,"MEAN_ANOMALY":105.5612,"EPHEMERIS_TYPE":0,"CLASSIFICATION_TYPE":"U","NORAD_CAT_ID":54243,"ELEMENT_SET_NO":999,"REV_AT_EPOCH":640,"BSTAR":0,"MEAN_MOTION_DOT":1.4e-7,"MEAN_MOTION_DDOT":0},{"OBJECT_NAME":"GALAXY 32 (G-32)","OBJECT_ID":"2022-153B","EPOCH":"2026-04-05T04:11:38.812992","MEAN_MOTION":1.00274477,"ECCENTRICITY":0.00031734,"INCLINATION":0.0179,"RA_OF_ASC_NODE":252.883,"ARG_OF_PERICENTER":120.3077,"MEAN_ANOMALY":152.1962,"EPHEMERIS_TYPE":0,"CLASSIFICATION_TYPE":"U","NORAD_CAT_ID":54244,"ELEMENT_SET_NO":999,"REV_AT_EPOCH":1241,"BSTAR":0,"MEAN_MOTION_DOT":-1.73e-6,"MEAN_MOTION_DDOT":0},{"OBJECT_NAME":"GALAXY 35 (G-35)","OBJECT_ID":"2022-170A","EPOCH":"2026-04-05T05:27:27.887904","MEAN_MOTION":1.00272427,"ECCENTRICITY":0.00021392,"INCLINATION":0.0074,"RA_OF_ASC_NODE":212.3098,"ARG_OF_PERICENTER":172.6669,"MEAN_ANOMALY":157.3154,"EPHEMERIS_TYPE":0,"CLASSIFICATION_TYPE":"U","NORAD_CAT_ID":54741,"ELEMENT_SET_NO":999,"REV_AT_EPOCH":1216,"BSTAR":0,"MEAN_MOTION_DOT":-1.61e-6,"MEAN_MOTION_DDOT":0},{"OBJECT_NAME":"GALAXY 36 (G-36)","OBJECT_ID":"2022-170B","EPOCH":"2026-04-05T03:46:00.118848","MEAN_MOTION":1.00271828,"ECCENTRICITY":0.00026476,"INCLINATION":0.0239,"RA_OF_ASC_NODE":138.1783,"ARG_OF_PERICENTER":278.1506,"MEAN_ANOMALY":104.6237,"EPHEMERIS_TYPE":0,"CLASSIFICATION_TYPE":"U","NORAD_CAT_ID":54742,"ELEMENT_SET_NO":999,"REV_AT_EPOCH":1204,"BSTAR":0,"MEAN_MOTION_DOT":-1.84e-6,"MEAN_MOTION_DDOT":0},{"OBJECT_NAME":"GALAXY 37 (G-37)","OBJECT_ID":"2023-112A","EPOCH":"2026-04-05T05:17:43.822176","MEAN_MOTION":1.00271909,"ECCENTRICITY":0.00020968,"INCLINATION":0.0241,"RA_OF_ASC_NODE":101.4352,"ARG_OF_PERICENTER":277.5095,"MEAN_ANOMALY":127.0005,"EPHEMERIS_TYPE":0,"CLASSIFICATION_TYPE":"U","NORAD_CAT_ID":57493,"ELEMENT_SET_NO":999,"REV_AT_EPOCH":981,"BSTAR":0,"MEAN_MOTION_DOT":4.9e-7,"MEAN_MOTION_DDOT":0}]
